[{"OBJECT_NAME":"STARLINK-33987","OBJECT_ID":"2025-094K","EPOCH":"2026-03-09T21:13:28.140672","MEAN_MOTION":14.98338803,"ECCENTRICITY":0.00031592,"INCLINATION":70.0016,"RA_OF_ASC_NODE":233.9125,"ARG_OF_PERICENTER":275.9002,"MEAN_ANOMALY":84.1796,"EPHEMERIS_TYPE":0,"CLASSIFICATION_TYPE":"U","NORAD_CAT_ID":63873,"ELEMENT_SET_NO":999,"REV_AT_EPOCH":4723,"BSTAR":0.00073663621,"MEAN_MOTION_DOT":8.709e-5,"MEAN_MOTION_DDOT":0},{"OBJECT_NAME":"UNKNOWN","OBJECT_ID":"","EPOCH":"2026-03-09T22:13:37.396992","MEAN_MOTION":14.94079285,"ECCENTRICITY":0.00368591,"INCLINATION":98.4007,"RA_OF_ASC_NODE":57.0532,"ARG_OF_PERICENTER":27.679,"MEAN_ANOMALY":332.6379,"EPHEMERIS_TYPE":0,"CLASSIFICATION_TYPE":"U","NORAD_CAT_ID":270309,"ELEMENT_SET_NO":999,"REV_AT_EPOCH":28085,"BSTAR":0.00073987035,"MEAN_MOTION_DOT":7.947e-5,"MEAN_MOTION_DDOT":0}]
